[{"OBJECT_NAME":"OBJECT F","OBJECT_ID":"2023-091F","EPOCH":"2026-03-09T22:26:06.799488","MEAN_MOTION":15.22515502,"ECCENTRICITY":0.0012878,"INCLINATION":97.5231,"RA_OF_ASC_NODE":130.3577,"ARG_OF_PERICENTER":100.6008,"MEAN_ANOMALY":259.6679,"EPHEMERIS_TYPE":0,"CLASSIFICATION_TYPE":"U","NORAD_CAT_ID":57171,"ELEMENT_SET_NO":999,"REV_AT_EPOCH":14905,"BSTAR":0.00043192506,"MEAN_MOTION_DOT":9.968e-5,"MEAN_MOTION_DDOT":0},{"OBJECT_NAME":"TIANMU-1 18","OBJECT_ID":"2024-004D","EPOCH":"2026-03-09T22:24:47.717568","MEAN_MOTION":15.25857469,"ECCENTRICITY":0.00038525,"INCLINATION":97.4666,"RA_OF_ASC_NODE":255.1597,"ARG_OF_PERICENTER":0.8806,"MEAN_ANOMALY":359.2438,"EPHEMERIS_TYPE":0,"CLASSIFICATION_TYPE":"U","NORAD_CAT_ID":58703,"ELEMENT_SET_NO":999,"REV_AT_EPOCH":12063,"BSTAR":0.00032272775,"MEAN_MOTION_DOT":8.193e-5,"MEAN_MOTION_DDOT":0}]
